EduID,Name,Phone1,Phone2,Phone3,Phone4,Phone5,Street Address,Locality,Pincode,City,Country,Mail,Website,Person to Contact,Working Hours,Services Offered,Details,Images URL,Keywords
168220,Cochin International Language Academy,0484 - 2983555, 9496160179, 9961596480,,,"4th Floor, INKEL Tower 1, Angamaly South",Angamaly,683573,thrissur,India,cilaielts@gmail.com,http://www.cilakerala.com,Sojan Mathew,"Monday - Friday: 9 AM - 5 PM, Saturday: 9 AM - 3.30 PM","Corporate Training Providers , Competitive Exams Online Coaching , Language Online Training , IELTS Online Coaching , Spoken English Online Training , Spoken English Classes , IELTS Coaching , TOEFL Coaching , Spoken English Training (Corporate) , ","Cochin International Language Academy (CILA) is an international institution for English Language Training and Teacher Training. We create international opportunities for English Language teachers in Non-English Speaking regions such as Western Europe, Central / Eastern Europe, Asia, Latin America, Middle East / North Africa and Sub-Saharan Africa. We also provide English Language training to students who wish to study or work abroad particularly in an English speaking country. Cochin International Language Academy (Cila) is owned and managed by Js Training Solutions Private Limited, a company registered and incorporated under the Companies Act, 1956. CILA is located in Angamaly, near to the Cochin International airport. It is only 2 minutes drive to the Angamaly Railway station. The School is managed by native English speakers from the UK and Canada with multiple years of experience in teaching English. We provide variety of courses such as the Trinity Cert. TESOL for English Teachers to become a qualified English teacher to speakers of other languages, IELTS for those who wish to work or study abroad, Business English, Spoken English for Adults, Spoken English for Children and even 1 to 1 Skype sessions. Our teachers are well qualified and trained to teach English using the modern methods. Students enjoy learning English in our centre. Two of our teachers are former IELTS examiners and have worked in countries around the world such as the UK, Canada and in the Middle East. So you can be confident that your learning is 100% correct. So, CILA becomes your first choice to learn and teach the English Language. Contact us for more details.  ","http://localserviceassets.blob.core.windows.net:80/businessphoto-t/cila%2520building-85294eb3-133e-4afd-b71a-ce8730a1f954-faca71a7-1502-4f27-9a80-72e026c1c809.jpg , http://localserviceassets.blob.core.windows.net:80/businessphoto-t/2221-c0ac6d3a-d4b3-4856-930d-43a8e9bdae3e-b498ab47-2505-405a-b5b7-6830e57e7e7c.jpg , http://localserviceassets.blob.core.windows.net:80/businessphoto-t/8420-4587d7d6-8f27-4926-8342-b62aa71dd820-ed1b9c77-92ab-43eb-8773-f5fb32fcfa93.jpg , http://localserviceassets.blob.core.windows.net:80/businessphoto-t/5176-cb3c0e85-85c4-42e3-9ed7-239d7cbf7c04-dafd3b8d-ff48-4030-b1be-506bc9c61d41.jpg , http://localserviceassets.blob.core.windows.net:80/businessphoto-t/8868-47667ab2-36bd-4984-a9e2-fce328633dd2-3bba0a99-4822-45e5-be8e-340852aaad45.jpg , http://localserviceassets.blob.core.windows.net:80/businessphoto-t/6378-21aa505b-5198-4136-9ae3-4cdee9601827-d2df78ef-7da5-4818-b4d9-5bac3c8955fe.jpg , http://localserviceassets.blob.core.windows.net:80/businessphoto-t/8898-3e35eeeb-5c45-480b-b2ac-08edf1096f15-b464142c-8dcb-4a57-9513-3090c4b712f7.jpg , http://localserviceassets.blob.core.windows.net:80/businessphoto-t/7521-0ab10d71-bcf4-4334-9cd0-00c534c745c4-f9320ba0-176c-4a90-ac23-5227a52862b3.jpg , http://localserviceassets.blob.core.windows.net:80/businessphoto-t/9171-5f60937c-fc27-43b9-9cc9-8ba7afd1aad9-531897fc-41cf-47fb-b664-d4fcac77a21e.jpg , http://localserviceassets.blob.core.windows.net:80/businessphoto-t/5158-3723f89c-14cb-4575-b009-89358a406e58-6eecc599-c8ab-4f78-927c-8f6f81837f8b.jpg , http://localserviceassets.blob.core.windows.net:80/businessphoto-m/cila%2520building-85294eb3-133e-4afd-b71a-ce8730a1f954-faca71a7-1502-4f27-9a80-72e026c1c809.jpg , http://localserviceassets.blob.core.windows.net:80/businessphoto-m/2221-c0ac6d3a-d4b3-4856-930d-43a8e9bdae3e-b498ab47-2505-405a-b5b7-6830e57e7e7c.jpg , http://localserviceassets.blob.core.windows.net:80/businessphoto-m/8420-4587d7d6-8f27-4926-8342-b62aa71dd820-ed1b9c77-92ab-43eb-8773-f5fb32fcfa93.jpg , http://localserviceassets.blob.core.windows.net:80/businessphoto-m/5176-cb3c0e85-85c4-42e3-9ed7-239d7cbf7c04-dafd3b8d-ff48-4030-b1be-506bc9c61d41.jpg , http://localserviceassets.blob.core.windows.net:80/businessphoto-m/8868-47667ab2-36bd-4984-a9e2-fce328633dd2-3bba0a99-4822-45e5-be8e-340852aaad45.jpg , http://localserviceassets.blob.core.windows.net:80/businessphoto-m/6378-21aa505b-5198-4136-9ae3-4cdee9601827-d2df78ef-7da5-4818-b4d9-5bac3c8955fe.jpg , http://localserviceassets.blob.core.windows.net:80/businessphoto-m/8898-3e35eeeb-5c45-480b-b2ac-08edf1096f15-b464142c-8dcb-4a57-9513-3090c4b712f7.jpg , http://localserviceassets.blob.core.windows.net:80/businessphoto-m/7521-0ab10d71-bcf4-4334-9cd0-00c534c745c4-f9320ba0-176c-4a90-ac23-5227a52862b3.jpg , http://localserviceassets.blob.core.windows.net:80/businessphoto-m/9171-5f60937c-fc27-43b9-9cc9-8ba7afd1aad9-531897fc-41cf-47fb-b664-d4fcac77a21e.jpg , http://localserviceassets.blob.core.windows.net:80/businessphoto-m/5158-3723f89c-14cb-4575-b009-89358a406e58-6eecc599-c8ab-4f78-927c-8f6f81837f8b.jpg , ",
168221,TEC Gate,8592005514, 8592005516,,,,"Global Plaza Building, 3rd Floor, Opp Railway Stattion, Vanjikulam Road",Poothole,680004,thrissur,India,enquiry@tecgate.in,http://www.tecgate.in,Vijayan K,Monday - Sunday: 9 AM - 4.30 PM,"GATE Coaching , Engineering Tuitions , GATE Biotechnology Coaching , Mechanical Engineering Tuitions , GATE Civil Engineering Coaching , GATE Chemical Engineering Coaching , Civil Engineering Tuitions , Electrical Engineering Tuitions , GATE Electronics Engineering Coaching , GATE Electrical Engineering Coaching , IT & Computer Science Engineering Tuitions , GATE Instrumental Engineering Coaching , GATE Mechanical Engineering Coaching , Physics Tuitions (11th & 12th) , Biotechnology Engineering Tuitions , Electronics & Communication Engineering Tuitions , Instrumentation Technology Engineering Tuitions , Engineering Graphics Tuitions , Polytechnic Entrance Coaching , Chemistry Tuitions (11th & 12th) , IES Coaching , ","TEC Gate Education Service was established in the year 2008 to enhance the skill of engineering students to crack competitive exams.
Our fast growing country, need faster minds with good quality engineers. We contribute quality engineers by providing GATE/IES coaching. For that we have a faculty pool all over India. We are providing national level coaching with national level result in kerala. Apart from GATE and IES, we are providing PSU/NET/LET coaching. We are providing free coaching for financially backward students with good academic performance.
Our youngster has good knowledge about subject, but lack of communication skill in english. For an extent to provide good communication in English we started English training with the support of DIRECT ENGLISH an International English training group.  ",,"1 Year Program , 3 Months Program , 6 Months Program , Biotechnology Engineering Tuitions , Chemistry Tuitions (11th & 12th) , Civil Engineering Tuitions , Classroom Tuitions , Daily Classes , GATE Civil Engineering Coaching , GATE Electrical Engineering Coaching , GATE Electronics Engineering Coaching , GATE Instrumental Engineering Coaching , GATE Mechanical Engineering Coaching , IES Coaching , Instrumentation Technology Engineering Tuitions , IT & Computer Science Engineering Tuitions , Mechanical Engineering Tuitions , Online Tuitions , Physics Tuitions (11th & 12th) , Polytechnic Entrance Coaching , "
168222,Tayal Institute Pvt. Ltd.,+91 22 49432704,,,,,"No. 403, D- Definity, JP Nagar, Road No. 1",Goregaon East,400062,thrissur,India,sales@tayalinstitute.com,http://www.tayalsirvod.com,Rajesh Tayal,Monday - Sunday: 9 AM - 7 PM,"CS Coaching , CMA Coaching , Chartered Accountant Coaching , Chartered Financial Analyst (CFA) Coaching , ","Tayal Institute Private Limited is the first institute in India to provide coaching exclusively to CA Final students only. Another first for us is to give a choice to the students for selecting the subject they want to do with us instead of forcing them to join.The institute was founded by CS Prof. Rajesh Tayal, in the year 2004 and since then it has recorded growth year over years. Every time some of our students are placed in merit list.Our courses are built in partnership with technology leaders and are relevant to industry needs.  ","http://localserviceassets.blob.core.windows.net:80/businessphoto-t/12-11-2015%2012-55-43-f84c93fa-fd98-4134-9c4f-9b3abdf442c6.png , http://localserviceassets.blob.core.windows.net:80/businessphoto-t/12-11-2015%2012-55-52-407ad4c4-b749-4039-add0-bb8165549e5a.png , http://localserviceassets.blob.core.windows.net:80/businessphoto-t/12-11-2015%2012-55-58-5bd41ed0-3d4e-4bd7-bf24-edcf6d120f4c.png , http://localserviceassets.blob.core.windows.net:80/businessphoto-t/12-11-2015%2012-56-05-c39d720b-a59f-4dc2-b185-a2213d696199.png , http://localserviceassets.blob.core.windows.net:80/businessphoto-t/12-11-2015%2012-56-12-1a590e8e-38a2-4af7-82af-0375c4b4bc77.png , http://localserviceassets.blob.core.windows.net:80/businessphoto-t/12-11-2015%2012-56-19-7a1e10da-8ed1-4df1-a576-3d5090ca7c55.png , http://localserviceassets.blob.core.windows.net:80/businessphoto-t/12-11-2015%2012-56-26-f2c2731b-b550-427a-be55-4682b4e86802.png , http://localserviceassets.blob.core.windows.net:80/businessphoto-t/12-11-2015%2012-56-38-61214f67-4aa2-415e-9754-d8efcd3d00ec.png , http://localserviceassets.blob.core.windows.net:80/businessphoto-m/12-11-2015%2012-55-43-f84c93fa-fd98-4134-9c4f-9b3abdf442c6.png , http://localserviceassets.blob.core.windows.net:80/businessphoto-m/12-11-2015%2012-55-52-407ad4c4-b749-4039-add0-bb8165549e5a.png , http://localserviceassets.blob.core.windows.net:80/businessphoto-m/12-11-2015%2012-55-58-5bd41ed0-3d4e-4bd7-bf24-edcf6d120f4c.png , http://localserviceassets.blob.core.windows.net:80/businessphoto-m/12-11-2015%2012-56-05-c39d720b-a59f-4dc2-b185-a2213d696199.png , http://localserviceassets.blob.core.windows.net:80/businessphoto-m/12-11-2015%2012-56-12-1a590e8e-38a2-4af7-82af-0375c4b4bc77.png , http://localserviceassets.blob.core.windows.net:80/businessphoto-m/12-11-2015%2012-56-19-7a1e10da-8ed1-4df1-a576-3d5090ca7c55.png , http://localserviceassets.blob.core.windows.net:80/businessphoto-m/12-11-2015%2012-56-26-f2c2731b-b550-427a-be55-4682b4e86802.png , http://localserviceassets.blob.core.windows.net:80/businessphoto-m/12-11-2015%2012-56-38-61214f67-4aa2-415e-9754-d8efcd3d00ec.png , ",
168223,Taj International Language School,9895877123, 9048841012,,,,"2nd Floor, Jaya Building",Mavoor Road,673004,thrissur,India,taj4languages@gmail.com,http://www.tils.in,Ashraf,Monday - Sunday: 6 AM - 6 PM,"Language Training , Big Data Analytics Online Training , Arabic Language Training , R Analytics Online Training , French Language Training , German Language Training , Italian Language Training , Spanish Language Training , Malayalam Language Training , Foreign Languages Coaching , Portuguese Language Training , Spoken English Classes , Economics Coaching Classes (9th & 10th STD) , Economics Coaching Classes (11th & 12th STD) , Advanced Economics Coaching Classes (College level and above) , IELTS Coaching , TOEFL Coaching , ","Taj International Language School emerged in 1999, posing a big challenge to the out-dated teaching practices in language classrooms across India. Ever since we began our mission, we have enabled thousands of people speak English and other foreign languages beautifully and embark on international dream careers. And that is the best proof of the effectiveness of our insightful approach to foreign language teaching.Our unique method is powered by scientific understanding about how languages work and how they are acquired by the human brain. Based on this insight we have developed a highly active and engaging method called GAFNNSC to equip our learners with a powerful language which gives them an edge in the highly competitive international job market.Accomadation available nearbyBranch Address: IN Apartment, Opposite Chemical Engineering Department, MIT, East Malayamma Road, Company Mukku, Kattangal, Calicut  ","http://localserviceassets.blob.core.windows.net:80/businessphoto-t/1-17e43b19-5a4f-4554-8001-d577b59f2da5.png , http://localserviceassets.blob.core.windows.net:80/businessphoto-t/2-95ccc238-3fbd-44ae-9f06-74946991ef80.png , http://localserviceassets.blob.core.windows.net:80/businessphoto-t/5-b37e329f-aca3-49cc-b841-a9c329c758c6.png , http://localserviceassets.blob.core.windows.net:80/businessphoto-m/1-17e43b19-5a4f-4554-8001-d577b59f2da5.png , http://localserviceassets.blob.core.windows.net:80/businessphoto-m/2-95ccc238-3fbd-44ae-9f06-74946991ef80.png , http://localserviceassets.blob.core.windows.net:80/businessphoto-m/5-b37e329f-aca3-49cc-b841-a9c329c758c6.png , ","French Language Training , German Language Training , IELTS Coaching , Italian Language Training , Malayalam Language Training , Portuguese Language Training , R Analytics Online Training , Spanish Language Training , Spoken English Classes , TOEFL Coaching , "
168224,Synergy School of Business Skills,8197337703,,,,,"3rd Floor, Selex Mall, Thrissur",Thrissur City,680001,thrissur,India,callsynergy@synergysbs.co.in,http://www.synergysbs.co.in,Ganesan,Monday - Saturday: 9 AM - 6 PM,"Enterprise Training , Project Management Certification Training , Software Tools Training , Six Sigma Certification Training , Project Management Online Training , Primavera Training , Project Management Training , MS Office Training , PMP Certification Online Training , Advanced Primavera Training , PMI ACP Online Training , PMP Certification Training , Scrum Certification Training , CAPM Certification Training , MS Project Training , Asta Powerproject Certification Training , Six Sigma Green Belt Training , Six Sigma Black Belt Training , Kaizen Training , Tally Training , Placement Training , ","Synergy focuses on training individuals on project management concepts and software tools such as Microsoft Office Project, MSP Server, Primavera, and Primavera Complete, Asta Power Project. The courses will be offered in 70 locations across India and in 7 countries, as listed in its website. 
Synergy also trains on PMP Certification Preparatory module, and conducts PME (Project Management Expert) Certification for PM Aspirants. 
The training outcome with Project Management Skills include: Realistic Budgeting, Resource Estimation, Testing Methods, Better Communication, and Effective Risk Management that keep the pace of production high, both qualitatively and quantitatively. Synergy enrolls Students and Professionals of Management and Engineering specialization viz., Mechanical, Civil, Electrical, Electronics, Instrumentation, Business Administration & IT
Synergy offers training on Tally software, MS Office and Placement Training through its course called Master Diploma in Business Automation. 
The School will also help students find employment in the relevant corporate firms for the respective programs.  ",,"Advanced Primavera Training , Asta Powerproject Certification Training , Classroom Tuitions , Evening Classes , PMI ACP Online Training , PMP Certification Online Training , PMP Certification Training , Project Management Training , Scrum Certification Training , Six Sigma Black Belt Training , Six Sigma Green Belt Training , Tally Training , "
168225,BSS Computer College,04885 - 222093, 9994687850,,,,1st Floor,Kunnamkulam,680503,thrissur,India,,,Manish. T.I,,,,,
168226,Korattimatha Technology Institute & ITC,0487 - 2709884, 0487 - 2709108, 9846052221,,,,Chalakudy,680307,thrissur,India,,,paul,,"Diploma in Banking & Finance (DBF) Coaching , Diploma in Fashion Designing Coaching , ",,,
168227,Patriot Aviation College,0495 - 3292833, 9447186800,,,,,West Fort,680004,thrissur,India,,http://www.patriotaviationcollege.com,Mohammed Ibrahim,,,,,
168228,Prof. P.C.Thomas Classes,0487 - 2336699,,,,,,Thrissur East,680005,thrissur,India,,http://www.professorpcthomas.com,,,,,,
168229,Prof: P.C.Thomas Institute of Civil Service,0487 - 2351115, 0487 - 2355950,,,,,Thrissur East,680005,thrissur,India,,http://www.professorpcthomas.org/civil.htm,,,,,,
168230,Sahara Institute of Management,0487 - 2325144, 0487 - 2443888, 9446318144,,,3rd Floor,Thrissur Central,680001,thrissur,India,,http://www.abcsahara.com,Sajini Rajan,,,,,
168231,Triumphant Institute of Management Education Pvt. Ltd.,0487 - 2321086, 0487 - 48723812,,,," No. 23/326, Room No. 65, 2nd Floor",West Fort,680004,thrissur,India,,http://www.time4education.com,,Monday - Sunday : 24 Hrs,"Common Management Aptitude Test (CMAT) Coaching , CAT Coaching , School Tuitions for All Subjects , SAT Coaching , Banking Tuitions , MBA & BBA Coaching , GMAT Coaching , MCA Entrance Coaching , IIT-JEE Coaching , ",,,"MBA & BBA Coaching , MCA Entrance Coaching , SAT Coaching , School Tuitions for All Subjects , "
168232,Twinkle Academy For Laundry Technology,0487 - 6419421, 0487 - 6452078, 9847106677,,,,Thrissur East,680005,thrissur,India,,,,,,,,
168233,TES,0471 - 2444402, 9387839871,,,,"67, Vrindavan Gardens, Pattam, Trivandrum -695004",,,thrissur,India,vallaths.tes@gmail.com,http://www.vallathstes.co.in,Kalyani Vallath,All days: 10:00 am - 4:00 pm,"UGC Net Coaching , UGC Net Management Coaching , UGC Net HR Coaching , UGC Net Commerce Coaching , CSIR UGC Net Exam Coaching , UGC Net Economics Coaching , UGC Net History Coaching , ","A complete in-depth free counseling on one to one basis for students to chart out their career path for education abroad, right from institution selection to taking the flight. We are one of the best Institutes providing Training for UGC NET & JRF, SET/SLET, Commonwealth Literature, British Literature, American Literature, Indian Writing in English, Structuralism, Poststructuralism, Postmodernism, Postcolonialism, Ecocriticism, ELT, Personality Development & Public Speaking, Lectureship Exam, English Literature, Civil Service English Main, Interview Training and Soft Skill Training. Kindly contact us for further details.  ",,
168234,Indian Educational Enterprises Pvt. Ltd.,0480 - 3241008,,,,,,Kodungallur,680667,thrissur,India,,,Viju Antony,,"Pre-Medical Test (PMT) Entrance Coaching , ",,,
168235,Gateforum Educational Services Pvt. Ltd.,0487 - 6500132, 9567718480,,,,3rd Floor,Poothole,680004,thrissur,India,thrissur@gateforum.com,http://www.gateforum.com,,,"GATE Coaching , GATE Biotechnology Coaching , GATE Civil Engineering Coaching , GATE Chemical Engineering Coaching , GATE Computer Science Coaching , GATE Chemistry Coaching , GATE Mathematics Coaching , GATE Physics Coaching , GATE Electronics Engineering Coaching , GATE Electrical Engineering Coaching , GATE Instrumental Engineering Coaching , GATE Mechanical Engineering Coaching , GATE Production Engineering Coaching , GATE Industrial Engineering Coaching , GATE Coaching for Other Subjects , Chartered Accountant Coaching , IES Coaching , ",,,"GATE Coaching for Other Subjects , GATE Computer Science Coaching , GATE Electrical Engineering Coaching , GATE Electronics Engineering Coaching , GATE Industrial Engineering Coaching , GATE Instrumental Engineering Coaching , GATE Mathematics Coaching , GATE Mechanical Engineering Coaching , GATE Physics Coaching , GATE Production Engineering Coaching , IES Coaching , "
168236,Bharath Aviation Academy,0471 - 4062207, 9846984669,,,,"City Office, 2nd Lane, Painimella",Panavila,695541,thrissur,India,sunittvpm@gmail.com,http://www.bharataviationacademy.com,Shameer,Monday - Sunday : 24 Hrs,"Job Training , Accounting Job Training , Airhostess Job Training , Attitudinal & Behavioral Training , Airport Ground Staff Training , Aviation Management Training , Montessori Teacher Training , Hotel Management Entrance Coaching , Aircraft Body Design Training , Automobile Body Design Training , Audio Engineering Training , Architect Job Training , Advanced Medical Coding Training , Audio & Video System Repair Training , Diploma in Fashion Designing Coaching , Apparel Designing Course , ","Bharat Aviation Academy is founded by Sun Educational Trust and is registered under the educational and Charitable trust under the Govt. of Kerala. Bharat Aviation Academy is a leading Educational Campus in Kerala. The Academy is recognized as the No.1 Aviation training campus in India.Bharat Aviation Academy was established in 2001 and has been developing its professional job oriented courses and have succeed with around 14 years of glory and wisdom in developing them. And hence has successfully moulded their students into professional candidates for the blooming and ever growing service industry specifically Aviation industry.... Join your hands with us now itself....... Campus
Opp. KSRTC Bus Stand,
Surya Road, 
Nedumangad  ",,"1 Month Program , 1 Week Program , 1 Year Program , 10000-20000 , 1000-5000 , 2 Months , 2 Weeks Programs , 3 Months , 3 Months Program , 5000-10000 , 6 Months , 6 Months Program , Apparel Designing Course , Architect Job Training , Attitudinal & Behavioral Training , Audio & Video System Repair Training , Audio Engineering Training , Automobile Body Design Training , Aviation Management Training , Below 1000 , Below Rs.1000 , Certification programs , Classroom Tuitions , Correspondence , Daily Classes , Degree Programs , Diploma in Fashion Designing Coaching , Diploma Programs , Evening Classes , Full time , Holiday Classes , Hotel Management Entrance Coaching , Montessori Teacher Training , More than 20000 , More than Rs.20000 , Online Tuitions , Part time , Rs.10000-Rs.20000 , Rs.1000-Rs.5000 , Rs.5000-Rs.10000 , Short Term , Summer Classes , Weekend Classes , "
168237,Career Launcher,0487 - 2388501, 9995311722,,,,1st Floor,West Fort,680004,thrissur,India,trichur.cl@careerlauncher.com,http://www.careerlauncher.com,K.V. Vinayarajan,,"Law Entrance Coaching , CLAT Entrance Coaching , CACPT Coaching , GRE Coaching , SAT Coaching , GMAT Coaching , ",,,
168238,Pearson Education Services Pvt. Ltd.,0480 - 2807875,,,,,Ground Floor,Kodungallur,680664,thrissur,India,kdg@tandemglobal.com,,,,"2nd Year PUC Coaching , 1st Year PUC Coaching , 10th STD Tuitions , 9th STD Tuitions , ",,,
168239,Talent Sprint Educational Services Ltd.,8106990406, 9008544333,,,,,Chembukkav,680020,thrissur,India,leads4ts@gmail.com,http://www.talentsprint.com,Counselor,Monday - Saturday: 9.30 AM - 9 PM,"10th STD Tuitions , B.Sc. IT Coaching , ","Talent Sprint Educational Services Ltd. brings expert preparative coaching for all those who will appear for the bank recruitment course. The course entails 120 hours of classroom coaching conducted by experienced bankers. The course includes concepts, formula, short-cuts, recent exam trends, in-class problem solving sessions and weekly mock tests.In addition to this comprehensive study material and worksheets are provided. The entire course focuses on providing exam specific orientation.Value Additions:GD & Interview Preparation Workshops
Course on IT Basics
Online Specials 
English Language Lab Access
General Knowledge Monthly Updates
Banking Basics Updates
Relevant Exam/Job Notifications
Tips & Tricks through Email/SMS  ",,"1 Year Program , 3 Months Program , 6 Months Program , Short Term , "
168240,IVY Institute of Employment Training,8907999007, 9526120777,,,,"No. 159/2, KINFRA, Kusumagiri PO, Kakkanad, Cochin â€“ 682037",,,thrissur,India,iietkochi@gmail.com,http://www.ivy-international.com,Vishal,,"MPPSC Entrance Exam Coaching , SSC Entrance Exam Coaching , MPSC Coaching , UPSC Coaching , Banking Tuitions , MBA & BBA Coaching , TNPSC Entrance Coaching , ","We have immense pleasure to introduce to you IVY INSTITUTE OF EMPLOYMENT TRAINING (IIET), a division of IVY INTERNATIONAL ACADEMY KOCHI, which is a premier IT consulting and training company. IIET has its campus at Koyenco TechPark, KINFRA, Near Infopark - Kakkanad and corporate office at Kundannoor, NH Bye-Pass, Kochi.
IIET provides training to candidates in Bank competitive examinations for POs / Clerks, SSC combined graduate level examination and various competitive examinations conducted by UPSC (Central government services) and PSC (Sate government services). We also provide specialized training in G.D/Interview for candidates preparing for job recruitment/MBA admission to reputed organizations. To emerge as a reputed training organization capable of grooming high quality human resources. Train and empower youth to seize the emerging global opportunities. Contribute to promote creativity and innovations in organizations.
  ",,"1 Month Program , Classroom Tuitions , Daily Classes , Holiday Classes , Online Tuitions , Summer Classes , TNPSC Entrance Coaching , UPSC Coaching , Weekend Classes , "
168241,Bits Pinneer Gate Education,9846500207,,,,,3rd Floor,M.G. Road,680001,thrissur,India,bitsthrissur@gmail.com,,Shimjith,Monday - Sunday: 9 AM - 5 PM,"Certification Courses Training , Computer Networking Training , Engineering Design Training , Hardware Training , Mobile Development Training , Networking & Cisco Training , Programming Languages Training , Robotics Training , Web Technologies Training , GATE Coaching , Engineering Tuitions , Mechanical Engineering Tuitions , Android Application Development Training , GATE Biotechnology Coaching , GATE Civil Engineering Coaching , Basic Networking Training , Aerospace Engineering Tuitions , Biomedical Engineering Tuitions , Embedded Systems Training , Microcontroller Training , GATE Chemical Engineering Coaching , GATE Computer Science Coaching , .Net Training , Biomechanical Engineering Tuitions , Automotive Engineering Tuitions , Mobile Application Development Training , Java & J2EE Training , Civil Engineering Tuitions , Architectural Engineering Tuitions , CCNA Certification Training , Electrical Engineering Tuitions , IT & Computer Science Engineering Tuitions , GATE Electrical Engineering Coaching , Robotics Engineering Tuitions , Microelectronic Engineering Tuitions , Chemical Engineering Tuitions , Academic Projects Training , MATLAB Training , Environmental Engineering Tuitions , Materials Science Engineering Tuitions , GATE Coaching for Other Subjects , Agricultural Engineering Tuitions , Engineering Tuitions - Other Branches , Engineering Physics Tuitions , Biotechnology Engineering Tuitions , Genetic Engineering Tuitions , Engineering Chemistry Tuitions , Mechatronics Engineering Tuitions , Software Engineering Tuitions , ","Bits Pioneer Gate Education holds over several years of experience in the industry and possesses eminent professionals who can provide you with the best service. We shall stick on to deadlines and deliver prompt services to you. At Bits Pioneer Gate Education we provide Lateral Entrance Test Tuitions, Engineering Tuitions, GATE Coaching, Java, .Net, MATLAB Training, Basic Hardware & Networking and Academic Project Training Feel free to contact us.  ",,"Android Application Development Training , Architectural Engineering Tuitions , Automotive Engineering Tuitions , Basic Networking Training , Biomechanical Engineering Tuitions , Biomedical Engineering Tuitions , Biotechnology Engineering Tuitions , CCNA Certification Training , Chemical Engineering Tuitions , Civil Engineering Tuitions , Economics Coaching Classes (11th & 12th STD) , Economics Coaching Classes (9th & 10th STD) , Electrical Engineering Tuitions , Electronics & Communication Engineering Tuitions , Embedded Systems Training , Engineering Chemistry Tuitions , Engineering Physics Tuitions , Engineering Tuitions - Other Branches , Environmental Engineering Tuitions , GATE Biotechnology Coaching , GATE Chemical Engineering Coaching , GATE Civil Engineering Coaching , GATE Coaching for Other Subjects , GATE Computer Science Coaching , GATE Electrical Engineering Coaching , Genetic Engineering Tuitions , Industrial & Production Engineering Tuitions , Instrumentation Technology Engineering Tuitions , ISC Tuitions for 11th & 12th , IT & Computer Science Engineering Tuitions , Java & J2EE Training , Materials Science Engineering Tuitions , MATLAB Training , Mechanical Engineering Tuitions , Mechatronics Engineering Tuitions , Microcontroller Training , Microelectronic Engineering Tuitions , Mobile Application Development Training , Robotics Engineering Tuitions , Software Engineering Tuitions , Telecommunication Engineering Tuitions , "
168242,PTC Aviation Academy,+91 44 33230207,,,,,"No. 16/29, 1st Main Road",Chromepet,600044,thrissur,India,hrnova@worldptc.com,http://www.worldptc.com,Nova/Joseph,"Monday - Friday: 9 AM - 6 PM, Saturday: 9 AM - 1 PM","Coaching & Tuitions , Job Training , Shipping & Logistic Training , Aviation Industry Job Vacancies , Pilot Training , Airhostess Job Training , Airport Ground Staff Training , Flight Dispatcher Training , Presentations Skills Training , Aviation Management Training , IATA UFTTA Job Training , Spoken English Classes , Personality Development Training , Cabin Crew Job Training , Galileo GDS Job Training , Mass Communication Training , IELTS Coaching , TOEFL Coaching , Aircraft Maintenance Engineering (AME) Coaching , Travel & Tourism Job Training , Diploma in Pilot Training , Diploma in Air Hostess Training , Diploma in Airport Ground Staff Training , Diploma in Flight Dispatch Operations Training , Diploma in Aviation Management Training , Diploma in IATA UFTTA Job Training , Diploma in Galileo GDS Training , Language Development Coaching , Diploma in Travel & Tourism Training , Diploma in Hospitality Training , Aptitude Training , Diploma in Air Ticketing Training , Diploma in Banking & Finance (DBF) Training , Diploma in Fashion Designing Coaching , Public Speaking Training , ","PTC Aviation Academy, CHENNAI, is led by a professional team of enthusiasts with leading airline backgrounds. We specialize in training & development for airline personnel in various departments such as Ground crew, CSA, Ground staff, Documentation staff in Cargo until Airport Managers. We also specialize in recruitment for airlines & Cargo services. PTC - Aviation Academy is initiated and managed by Airline Professionals and a highly enterprising and motivated team. A premiere Aviation Academy offering courses in Ground Crew Training, Customer Services, Hospitality, and Travel & Tourism Training, Soft skill and English Fluency training. Contact us for your needs.  ","http://localserviceassets.blob.core.windows.net:80/businessphoto-t/PTCAC-1-047c9faf-52a7-4411-9a31-30d6f19ae3ba.jpg , http://localserviceassets.blob.core.windows.net:80/businessphoto-t/PTCAC-2-c3bbc0f8-b332-42e4-86f8-6ea0c574e7c2.jpg , http://localserviceassets.blob.core.windows.net:80/businessphoto-t/PTCAC-3-fcaba1e9-a5e8-4339-b986-e6f8ecb9860e.jpg , http://localserviceassets.blob.core.windows.net:80/businessphoto-t/PTCAC-4-91750188-2862-40a4-8cae-ed3a3d4fa199.jpg , http://localserviceassets.blob.core.windows.net:80/businessphoto-t/PTCAC-5-35d168a7-1f0e-4235-a0d0-15e18d2953a5.jpg , http://localserviceassets.blob.core.windows.net:80/businessphoto-t/Placement01-9ea8a301-82b1-4ff3-8e09-472fb4850feb.jpg , http://localserviceassets.blob.core.windows.net:80/businessphoto-t/Placement02-ebcf4cce-0496-4571-827b-6dd937dc39b9.jpg , http://localserviceassets.blob.core.windows.net:80/businessphoto-t/placemnent03-105bb34c-d21f-4d96-a473-bd379e099a88.jpg , http://localserviceassets.blob.core.windows.net:80/businessphoto-t/1-0f211369-c317-4697-ae8c-2c107860ab27.jpg , http://localserviceassets.blob.core.windows.net:80/businessphoto-t/2-fd823521-2c09-4bad-99c6-9ffb15431148.jpg , http://localserviceassets.blob.core.windows.net:80/businessphoto-t/3-a894d595-d3b9-4ac3-803f-4994ee3bbea6.jpg , http://localserviceassets.blob.core.windows.net:80/businessphoto-t/4-a0aa35d0-aa20-4080-aff0-9a156d327177.jpg , http://localserviceassets.blob.core.windows.net:80/businessphoto-t/5-cc0fdc3a-2132-4ee9-9dfc-7e786336c502.jpg , http://localserviceassets.blob.core.windows.net:80/businessphoto-t/6-e85615cd-51b4-475d-82d2-c2748608738b.jpg , http://localserviceassets.blob.core.windows.net:80/businessphoto-m/PTCAC-1-047c9faf-52a7-4411-9a31-30d6f19ae3ba.jpg , http://localserviceassets.blob.core.windows.net:80/businessphoto-m/PTCAC-2-c3bbc0f8-b332-42e4-86f8-6ea0c574e7c2.jpg , http://localserviceassets.blob.core.windows.net:80/businessphoto-m/PTCAC-3-fcaba1e9-a5e8-4339-b986-e6f8ecb9860e.jpg , http://localserviceassets.blob.core.windows.net:80/businessphoto-m/PTCAC-4-91750188-2862-40a4-8cae-ed3a3d4fa199.jpg , http://localserviceassets.blob.core.windows.net:80/businessphoto-m/PTCAC-5-35d168a7-1f0e-4235-a0d0-15e18d2953a5.jpg , http://localserviceassets.blob.core.windows.net:80/businessphoto-m/Placement01-9ea8a301-82b1-4ff3-8e09-472fb4850feb.jpg , http://localserviceassets.blob.core.windows.net:80/businessphoto-m/Placement02-ebcf4cce-0496-4571-827b-6dd937dc39b9.jpg , http://localserviceassets.blob.core.windows.net:80/businessphoto-m/placemnent03-105bb34c-d21f-4d96-a473-bd379e099a88.jpg , http://localserviceassets.blob.core.windows.net:80/businessphoto-m/1-0f211369-c317-4697-ae8c-2c107860ab27.jpg , http://localserviceassets.blob.core.windows.net:80/businessphoto-m/2-fd823521-2c09-4bad-99c6-9ffb15431148.jpg , http://localserviceassets.blob.core.windows.net:80/businessphoto-m/3-a894d595-d3b9-4ac3-803f-4994ee3bbea6.jpg , http://localserviceassets.blob.core.windows.net:80/businessphoto-m/4-a0aa35d0-aa20-4080-aff0-9a156d327177.jpg , http://localserviceassets.blob.core.windows.net:80/businessphoto-m/5-cc0fdc3a-2132-4ee9-9dfc-7e786336c502.jpg , http://localserviceassets.blob.core.windows.net:80/businessphoto-m/6-e85615cd-51b4-475d-82d2-c2748608738b.jpg , ","1 Month Program , 1 Week Program , 1 Year Program , 2 Weeks Programs , 3 Months Program , 6 Months Program , Aircraft Maintenance Engineering (AME) Coaching , Airhostess Job Training , Airport Ground Staff Training , Aptitude Training , Aviation Industry Job Vacancies , Aviation Management Training , Below Rs.1000 , Cabin Crew Job Training , Classroom Tuitions , Daily Classes , Diploma in Fashion Designing Coaching , Diploma in Flight Dispatch Operations Training , Diploma in Galileo GDS Training , Diploma in Hospitality Training , Diploma in IATA UFTTA Job Training , Diploma in Pilot Training , Diploma in Travel & Tourism Training , Flight Dispatcher Training , Galileo GDS Job Training , IATA UFTTA Job Training , IELTS Coaching , Language Development Coaching , Mass Communication Training , More than Rs.20000 , Personality Development Training , Pilot Training , Presentations Skills Training , Public Speaking Training , Rs.10000-Rs.20000 , Rs.1000-Rs.5000 , Rs.5000-Rs.10000 , Shipping & Logistic Training , Spoken English Classes , TOEFL Coaching , Travel & Tourism Job Training , "
168243,English Academy,,,,,,1st Floor,Marar Road,680001,thrissur,India,,http://www.englishacademy.co.in,,Monday - Saturday: 10 AM - 6 PM,"Spoken English Classes , ",,,
168244,Chaithanya Classes,0487 - 2380592, 0487 - 2382832,,,,,West Fort,680004,thrissur,India,chaithanyaclasses@gmail.com,http://chaithanyaclasses.com,,Monday - Sunday: 9 AM - 6 PM,"Commerce Tuitions (11th & 12th STD) , 2nd Year PUC Coaching , 1st Year PUC Coaching , 10th STD Tuitions , ",,,"Classroom Tuitions , Holiday Classes , Summer Classes , Weekend Classes , "
168245,Triumphant Institute of Management Education Pvt. Ltd.,8482359674,,,,,,,,thrissur,India,,,,,"GATE Coaching , Engineering Tuitions , GATE Biotechnology Coaching , Mechanical Engineering Tuitions , Aerospace Engineering Tuitions , GATE Civil Engineering Coaching , GATE Chemical Engineering Coaching , Biomedical Engineering Tuitions , Biomechanical Engineering Tuitions , GATE Computer Science Coaching , GATE Chemistry Coaching , Automotive Engineering Tuitions , Civil Engineering Tuitions , GATE Mathematics Coaching , GATE Physics Coaching , Architectural Engineering Tuitions , Electrical Engineering Tuitions , GATE Electronics Engineering Coaching , GATE Electrical Engineering Coaching , IT & Computer Science Engineering Tuitions , Robotics Engineering Tuitions , GATE Instrumental Engineering Coaching , GATE Mechanical Engineering Coaching , Microelectronic Engineering Tuitions , Chemical Engineering Tuitions , GATE Production Engineering Coaching , GATE Industrial Engineering Coaching , Environmental Engineering Tuitions , Materials Science Engineering Tuitions , GATE Coaching for Other Subjects , Agricultural Engineering Tuitions , Common Management Aptitude Test (CMAT) Coaching , Engineering Tuitions - Other Branches , Engineering Physics Tuitions , Biotechnology Engineering Tuitions , Genetic Engineering Tuitions , Engineering Chemistry Tuitions , Mechatronics Engineering Tuitions , Software Engineering Tuitions , Electronics & Communication Engineering Tuitions , Instrumentation Technology Engineering Tuitions , Telecommunication Engineering Tuitions , Industrial & Production Engineering Tuitions , CAT Coaching , School Tuitions for All Subjects , GRE Coaching , SAT Coaching , Banking Tuitions , ",,,"Biomechanical Engineering Tuitions , Biomedical Engineering Tuitions , Biotechnology Engineering Tuitions , CAT Coaching , Chemical Engineering Tuitions , Civil Engineering Tuitions , Common Management Aptitude Test (CMAT) Coaching , Electrical Engineering Tuitions , Electronics & Communication Engineering Tuitions , Engineering Chemistry Tuitions , Engineering Physics Tuitions , Engineering Tuitions - Other Branches , Environmental Engineering Tuitions , GATE Biotechnology Coaching , GATE Chemical Engineering Coaching , GATE Chemistry Coaching , GATE Civil Engineering Coaching , GATE Coaching for Other Subjects , GATE Computer Science Coaching , GATE Electrical Engineering Coaching , GATE Electronics Engineering Coaching , GATE Industrial Engineering Coaching , GATE Instrumental Engineering Coaching , GATE Mathematics Coaching , GATE Mechanical Engineering Coaching , GATE Physics Coaching , GATE Production Engineering Coaching , Genetic Engineering Tuitions , GMAT Coaching , GRE Coaching , Industrial & Production Engineering Tuitions , Instrumentation Technology Engineering Tuitions , IT & Computer Science Engineering Tuitions , Materials Science Engineering Tuitions , MBA & BBA Coaching , MCA Entrance Coaching , Mechanical Engineering Tuitions , Mechatronics Engineering Tuitions , Microelectronic Engineering Tuitions , Robotics Engineering Tuitions , SAT Coaching , School Tuitions for All Subjects , Software Engineering Tuitions , Telecommunication Engineering Tuitions , "
168246,Thrissur School of Journalism & Mass Communication,0487 - 2388005, 9745334334,,,,2nd Floor,M.G. Road,680004,thrissur,India,jmcthrissur@gmail.com,,Chitra Sankar,Monday - Saturday: 9.30 AM - 5.30 PM,"Media & Mass Communication Colleges , Bachelor in Mass Communication Colleges , Mass Communication Training , ",,,
168247,Sahasika Samskarika Kendra,9446723429,,,,,,Kannikulangara,680682,thrissur,India,,http://sskthrissur.webs.com,,,"Spoken English Classes , ",,,
168248,Logic School of Management,9895818581,,,,,North Janatha Road,Palarivattom,682025,thrissur,India,cochin@logiccpacma.com,http://www.logiccpacma.com,Neethu,Monday - Sunday: 8 AM - 6 PM,"Integrated Professional Competency (IPCC) Coaching , CACPT Coaching , CS Coaching , CMA Coaching , Economics Coaching Classes (9th & 10th STD) , Chartered Accountant Coaching , MBA & BBA Coaching , Economics Coaching Classes (11th & 12th STD) , International Financial Reporting Standards (IFRS) Coaching , ICWA Coaching , ","Logic School of Management started its journey in pursuit of excellence in management studies as a division of Logic Software Solutions Pvt Ltd , a highly reputed institute for software and management studies for 16 years now LOGIC SCHOOL OF MANAGEMENT  is exclusively  meant for management courses  Equally well established  is the LOGIC Group  in HR consultancy, software development and management training. Quality in all aspects and service to industry and society are our commitments strictly and sincerely upheld. Logic School of Management is the authorized Indian partner of IMA (USA). LSM is also an approved learining partner of IAAP(UK) for IFRS
Logic School of Management specifically promotes International Professional Courses like CMA (Certified Management Accountant)[IMA,USA] and CPA(Certified Public Accountant)[AICPA,USA], IFRS(IAAP UK) along with Indian courses such as CA(CPT,IPCC, Final), CMA-India(ICWA) and B.Com(Taxation)[M.G.University].Our students success rate is around 75%.First in Kerala to introduce CMA with a beneficial tie up with Wiley USA a world famous institute in the field of CMA education, LOGIC SCHOOL OF MANAGEMENT  is ,in a short span of time is rated  top most in CMA training with consistent success rate LOGIC SCHOOL OF MANAGEMENT  is devoted to promote ethical and moral values , respect for composite culture and adherence to great Indian tradition. Contact us for more details.  ","http://localserviceassets.blob.core.windows.net:80/businessphoto-t/B%20Com%20Post-01(1)-b4d7ec0b-4884-40a5-9234-131be81bab8d.jpg , http://localserviceassets.blob.core.windows.net:80/businessphoto-t/CMA%20Result-02%20(2)-8e5caea8-9029-41ac-9c89-de6824960ff0.jpg , http://localserviceassets.blob.core.windows.net:80/businessphoto-t/FB%20Post-01%20(1)(1)-0f012ba9-ba17-4f8e-9a25-fc376f470dc4.jpg , http://localserviceassets.blob.core.windows.net:80/businessphoto-t/IMG-20150727-WA0003-f416083d-5397-451e-85a7-9716e7bb0bcf.jpg , http://localserviceassets.blob.core.windows.net:80/businessphoto-m/B%20Com%20Post-01(1)-b4d7ec0b-4884-40a5-9234-131be81bab8d.jpg , http://localserviceassets.blob.core.windows.net:80/businessphoto-m/CMA%20Result-02%20(2)-8e5caea8-9029-41ac-9c89-de6824960ff0.jpg , http://localserviceassets.blob.core.windows.net:80/businessphoto-m/FB%20Post-01%20(1)(1)-0f012ba9-ba17-4f8e-9a25-fc376f470dc4.jpg , http://localserviceassets.blob.core.windows.net:80/businessphoto-m/IMG-20150727-WA0003-f416083d-5397-451e-85a7-9716e7bb0bcf.jpg , ","Economics Coaching Classes (9th & 10th STD) , ICWA Coaching , Integrated Professional Competency (IPCC) Coaching , International Financial Reporting Standards (IFRS) Coaching , MBA & BBA Coaching , "
168249,Inspire Academy Of Engineering And Design,9446423217,,,,,"Kannan Nambiar Road , Near Big Bazzar , North Bus Stand ",patturikkal,680020,thrissur,India,nishanthmuralidharan27@gmail.com,,Nishanth Muralidharan,,,,,
168250,Nirvana Institute for Competitive Exams,8129157165,,,,,1st Floor,Irinjalakuda,680121,thrissur,India,,,Shree Lakshmi,Monday - Sunday: 9.30 AM - 7 PM,"Competitive Exams Online Coaching , Civil Services Entrance Online Coaching , SSC JE Entrance Coaching , Banking Tuitions , ",,,
168251,Boon Training & Consultancy,0487 - 6555561, 8589033755,,,,5th floor,Thrissur East,680005,thrissur,India,boontrainings@gmail.com,http://https://boontrainings.com,Faizal Rahiman,Monday - Sunday: 7.30 AM - 7.30 PM,"Language Training , French Language Training , German Language Training , PTE Coaching , IELTS Coaching , ",,,
168252,Firefly E-Ventures Ltd.,,,,,,"Park Centra Building, 11th Floor",Sector 30,122001,thrissur,India,,http://www.htcampus.com,Bhuwan,Monday - Sunday: 9.30 AM - 6 PM,"Hotel Management Colleges , Overseas Education , Distance Education , Coaching & Tuitions , Job Training , Media Colleges , Multimedia & Design Training , 2D Animation Training , Mauritius Education Consultants , MBA Part Time Distance Education , M.B.A. Distance Education , Overseas Engineering Education Consultants , USA Education Consultants , Online UK Distance Education , TV Journalism Job Training , M.Sc. TQM Distance Education , UK Education Consultants , Australia Education Consultants , M.Sc. Physics Distance Education , M.Sc. Botany Distance Education , Canada Education Consultants , New Zealand Education Consultants , M.Sc. Zoology Distance Education , M.Sc. Mathematics Distance Education , Russia Education Consultants , Cyprus Education Consultants , B.B.A. Colleges , B.B.M. Colleges , Austria Education Consultants , Poland Education Consultants , Diploma in Advertising Design , Overseas MBA Education Consultants , M.Sc. Chemistry Distance Education , M.C.A. Distance Education , Overseas Medical Education Consultants , Overseas Journalism Education Consultants , Graphic Designing Training , Multimedia & Animation Training , South Korea Education Consultants , MIF Distance Education , MAF Distance Education , 12th Open School Distance Education , Diploma in Civil Engineering Distance Education , Hotel Management Degree Colleges , Hotel Management Diploma Colleges , Diploma in IT Engineering Distance Education , Diploma in Chemical Engineering Distance Education , Hotel Management Certificate Colleges , Fashion Designing Training , Diploma in Electrical Engineering Distance Education , Diploma in Industrial Relation Course Distance Education , B.A Distance Education , ","Firefly E-Ventures Ltd. has enormous experience in this business. Our target has always been timely service, best quality and reasonable cost. We are in touch with our customers through quality, performance, service and assistance. Bringing the best of assessment to our customers, we also care as much about our customers. We value the trust and beliefs vested in us by our clients and professional contacts and provide a dedicated service with an honest and direct approach it to all our dealings. We deal in Overseas Education, Distance Education, 2D & 3D Animation . Contact us for further details.  ",,"2 Years , 6 Months , Actuarial Science Distance Education , Aeronautical Engineering , Architectural Engineering , Armenia Education Consultants , B.A Distance Education , B.B.A. Colleges , B.B.M. Colleges , B.C.A. Distance Education , B.Com Distance Education , B.Ed. Distance Education , B.Sc. IT Distance Education , B.Tech. Distance Education , BBA Distance Education , BCA Distance Education , Below 1000 , Canada Education Consultants , Certification programs , Certified Financial Management Distance Education , Certified Public Accountant (CPA) Distance Education , Chartered Financial Analyst (CFA) Distance Education , China Education Consultants , Contact Classes , Correspondence , Counselling Overseas Education , Cyprus Education Consultants , DBM ADBM Distance Education , Degree Programs , Denmark Education Consultants , Diploma in Advertising Design , Diploma in Chemical Engineering Distance Education , Diploma in Civil Engineering Distance Education , Diploma in Electrical Engineering Distance Education , Diploma in Industrial Relation Course Distance Education , Diploma in IT Engineering Distance Education , Diploma Programs , Dubai Education Consultants , Europe Education Consultants , Executive BBA Distance Education , Executive MBA Distance Education , Fashion Designing Training , Finland Education Consultants , France Education Consultants , Germany Education Consultants , Graphic Designing Training , Hotel Management Certificate Colleges , Hotel Management Degree Colleges , Hotel Management Diploma Colleges , Industrial Management Distance Education , International Business , Ireland Education Consultants , IT Program Distance Education , Italy Education Consultants , LLB Distance Education , M.A. Distance Education , M.B.A. Distance Education , M.C.A. Distance Education , M.Com Distance Education , M.Phil Distance Education , M.Sc. Botany Distance Education , M.Sc. Chemistry Distance Education , M.Sc. Mathematics Distance Education , M.Sc. Physics Distance Education , M.Sc. TQM Distance Education , M.Sc. Visual Communications Distance Education , M.Sc. Zoology Distance Education , M.Tech. Distance Education , MAF Distance Education , Malaysia Education Consultants , Mass Communication Job Training , Mass Communication Training , Mauritius Education Consultants , MBA Part Time Distance Education , Media Schools , Medicine , MIF Distance Education , More than 2 Years , More than Rs.20000 , MSC IT , Multimedia & Animation Training , New Zealand Education Consultants , Norway Education Consultants , Online , Online Homeopathy Distance Education , Online MBA , Online UK Distance Education , Open School for 10th class , Overseas Aviation , Overseas Engineering Education Consultants , Overseas Journalism Education Consultants , Overseas MBA Education Consultants , Overseas Medical Education Consultants , P.H.D. Distance Education , PGDCR Distance Education , PGDHHM Distance Education , PGDHIM Distance Education , PGDITM Distance Education , PGDMLS Distance Education , Philippines Education Consultants , Poland Education Consultants , Rs.10000-Rs.20000 , Rs.1000-Rs.5000 , Rs.5000-Rs.10000 , Russia Education Consultants , Scholarships , Singapore Education Consultants , South Korea Education Consultants , Sweden Education Consultants , Switzerland Education Consultants , TV Journalism Job Training , UK Education Consultants , Ukraine Education Consultants , USA Education Consultants , "
168253,Registered Nurses Academy Thrissur,8592049292,,,,,"DHANASREE, MANNATH LANE, M.G.ROAD, THRISSUR",West Fort,680001,thrissur,India,rnathrissur2016@gmail.com,,Sanoop V R,,"IELTS Coaching , ",,,
